[Satellite]
VERSION=1.1
NAME=CUBESAT XI-V (CO-58)
NICKNAME=CO-58
TLE1=1 28895U 05043F   15054.97565410  .00001227  00000-0  25019-3 0  9998
TLE2=2 28895  97.8227 248.6668 0015951 296.2327  63.7236 14.62524934497042
